H-2A R/B                
1 28932U 06002B   26094.99858144  .00012555  00000+0  61550-3 0  9998
2 28932  98.2467 244.3046 0052506 151.3054 209.1084 15.17060462 98421
RESURS-DK 1             
1 29228U 06021A   26095.24801308  .00003399  00000+0  19856-3 0  9995
2 29228  69.9329 168.3203 0002060  32.7151 327.4142 15.12915812 91540
CZ-4B R/B               
1 29507U 06046C   26095.12511488  .00006587  00000+0  33024-3 0  9991
2 29507  97.5536 139.9601 0033358 173.2345 186.9346 15.17196776 64058
CZ-2C R/B               
1 31114U 07010B   26095.28563863  .00000213  00000+0  11700-3 0  9998
2 31114  98.4006 207.2350 0058394 215.9362 143.7882 14.20256773983498
COSMO-SKYMED 1          
1 31598U 07023A   26095.27390594  .00005296  00000+0  46832-3 0  9996
2 31598  97.8873 286.5231 0001656  99.5694 260.5714 14.96746436 18887
COSMOS 2428             
1 31792U 07029A   26095.29521791 -.00000032  00000+0  85431-5 0  9999
2 31792  70.9420 147.5034 0009695 249.4024 110.6058 14.12948974967859
SL-16 R/B               
1 31793U 07029B   26095.22084715 -.00000127  00000+0 -40780-4 0  9996
2 31793  70.9738 116.6153 0002913 276.4717 160.5152 14.14843880969129
KORONAS-FOTON           
1 33504U 09003A   26095.14714395  .00017158  00000+0  37323-3 0  9995
2 33504  82.4289 248.3526 0011409  63.5032 296.7385 15.44107624949820
CZ-2C R/B               
1 37731U 11030B   26095.31335727  .00001967  00000+0  25344-3 0  9992
2 37731  97.8590  52.0535 0050928 263.6264 257.9435 14.81320163794031
H-2A R/B                
1 38341U 12025E   26095.16142992  .00003517  00000+0  31910-3 0  9997
2 38341  98.4775  64.3387 0043354 225.1948 134.5743 14.95359059752171
SHIJIAN-16 (SJ-16)      
1 39358U 13057A   26095.24252300  .00001064  00000+0  10642-3 0  9990
2 39358  74.9708 134.8208 0015405  43.7863 316.4543 14.92442118675467
SL-4 R/B                
1 39679U 14021B   26095.30564319  .00021451  00000+0  45693-3 0  9997
2 39679  51.6069 207.3414 0094283 200.1230 159.6028 15.40203840660378
